{
  "type": "FeatureCollection",
  "features": [
    {
      "type": "Feature",
      "properties": {
        "norad_id": 35476,
        "name": "COSMOS 2251 DEB",
        "group": "cosmos-2251-debris",
        "lat": 67.43995301858538,
        "lon": 107.36229660411841,
        "alt_km": 625.3522591990686,
        "timestamp": "2025-12-11T08:58:27.521639+00:00",
        "meta_object_name": "COSMOS 2251 DEB",
        "meta_object_id": "1993-036ALW",
        "meta_epoch": "2025-12-10T05:06:43.879968",
        "meta_mean_motion": 14.75586527,
        "meta_eccentricity": 0.0017513,
        "meta_inclination": 73.9777,
        "meta_ra_of_asc_node": 65.8758,
        "meta_arg_of_pericenter": 48.7738,
        "meta_mean_anomaly": 340.6076,
        "meta_ephemeris_type": 0,
        "meta_classification_type": "U",
        "meta_norad_cat_id": 35476,
        "meta_element_set_no": 999,
        "meta_rev_at_epoch": 87850,
        "meta_bstar": 0.00253,
        "meta_mean_motion_dot": 0.0001731,
        "meta_mean_motion_ddot": 0,
        "tle_line1": "1 35476U 93036ALW 25344.21300787  .00017310  00000+0  25300-2 0  9995",
        "tle_line2": "2 35476  73.9777  65.8758 0017513  48.7738 340.6076 14.75586527878504"
      },
      "geometry": {
        "type": "Point",
        "coordinates": [
          107.36229660411841,
          67.43995301858538
        ]
      }
    },
    {
      "type": "Feature",
      "properties": {
        "norad_id": 35580,
        "name": "COSMOS 2251 DEB",
        "group": "cosmos-2251-debris",
        "lat": -73.71309927502895,
        "lon": 82.3097819941702,
        "alt_km": 919.4359509265414,
        "timestamp": "2025-12-11T08:58:27.521650+00:00",
        "meta_object_name": "COSMOS 2251 DEB",
        "meta_object_id": "1993-036ALX",
        "meta_epoch": "2025-12-10T21:17:20.461632",
        "meta_mean_motion": 13.83850084,
        "meta_eccentricity": 0.0281508,
        "meta_inclination": 73.9016,
        "meta_ra_of_asc_node": 181.8733,
        "meta_arg_of_pericenter": 187.4326,
        "meta_mean_anomaly": 172.2587,
        "meta_ephemeris_type": 0,
        "meta_classification_type": "U",
        "meta_norad_cat_id": 35580,
        "meta_element_set_no": 999,
        "meta_rev_at_epoch": 62231,
        "meta_bstar": 0.0026077,
        "meta_mean_motion_dot": 3.904e-05,
        "meta_mean_motion_ddot": 0,
        "tle_line1": "1 35580U 93036ALX 25344.88704238  .00003904  00000+0  26077-2 0  9999",
        "tle_line2": "2 35580  73.9016 181.8733 0281508 187.4326 172.2587 13.83850084622311"
      },
      "geometry": {
        "type": "Point",
        "coordinates": [
          82.3097819941702,
          -73.71309927502895
        ]
      }
    },
    {
      "type": "Feature",
      "properties": {
        "norad_id": 35583,
        "name": "COSMOS 2251 DEB",
        "group": "cosmos-2251-debris",
        "lat": 72.21009042364504,
        "lon": -29.80922379440812,
        "alt_km": 1264.1310504863031,
        "timestamp": "2025-12-11T08:58:27.521660+00:00",
        "meta_object_name": "COSMOS 2251 DEB",
        "meta_object_id": "1993-036AMA",
        "meta_epoch": "2025-12-10T23:36:14.703264",
        "meta_mean_motion": 13.55329862,
        "meta_eccentricity": 0.03856,
        "meta_inclination": 73.9167,
        "meta_ra_of_asc_node": 214.8624,
        "meta_arg_of_pericenter": 239.5355,
        "meta_mean_anomaly": 116.7145,
        "meta_ephemeris_type": 0,
        "meta_classification_type": "U",
        "meta_norad_cat_id": 35583,
        "meta_element_set_no": 999,
        "meta_rev_at_epoch": 82388,
        "meta_bstar": 0.00077883,
        "meta_mean_motion_dot": 8.45e-06,
        "meta_mean_motion_ddot": 0,
        "tle_line1": "1 35583U 93036AMA 25344.98350351  .00000845  00000+0  77883-3 0  9999",
        "tle_line2": "2 35583  73.9167 214.8624 0385600 239.5355 116.7145 13.55329862823888"
      },
      "geometry": {
        "type": "Point",
        "coordinates": [
          -29.80922379440812,
          72.21009042364504
        ]
      }
    },
    {
      "type": "Feature",
      "properties": {
        "norad_id": 35585,
        "name": "COSMOS 2251 DEB",
        "group": "cosmos-2251-debris",
        "lat": -37.982899073751135,
        "lon": -22.276356142437656,
        "alt_km": 857.6637771145661,
        "timestamp": "2025-12-11T08:58:27.521671+00:00",
        "meta_object_name": "COSMOS 2251 DEB",
        "meta_object_id": "1993-036AMC",
        "meta_epoch": "2025-12-10T11:15:36.972288",
        "meta_mean_motion": 13.75237799,
        "meta_eccentricity": 0.03105199,
        "meta_inclination": 73.9731,
        "meta_ra_of_asc_node": 352.2025,
        "meta_arg_of_pericenter": 264.9019,
        "meta_mean_anomaly": 254.8176,
        "meta_ephemeris_type": 0,
        "meta_classification_type": "U",
        "meta_norad_cat_id": 35585,
        "meta_element_set_no": 999,
        "meta_rev_at_epoch": 64032,
        "meta_bstar": 0.0016826252,
        "meta_mean_motion_dot": 2.267e-05,
        "meta_mean_motion_ddot": 0,
        "tle_line1": "1 35585U 93036AMC 25344.46917792  .00002267  00000+0  16826-2 0  9991",
        "tle_line2": "2 35585  73.9731 352.2025 0310519 264.9019 254.8176 13.75237799640328"
      },
      "geometry": {
        "type": "Point",
        "coordinates": [
          -22.276356142437656,
          -37.982899073751135
        ]
      }
    },
    {
      "type": "Feature",
      "properties": {
        "norad_id": 35586,
        "name": "COSMOS 2251 DEB",
        "group": "cosmos-2251-debris",
        "lat": -73.06112819528231,
        "lon": -165.14596177627678,
        "alt_km": 1028.193244837409,
        "timestamp": "2025-12-11T08:58:27.521681+00:00",
        "meta_object_name": "COSMOS 2251 DEB",
        "meta_object_id": "1993-036AMD",
        "meta_epoch": "2025-12-09T15:43:44.050080",
        "meta_mean_motion": 13.52082947,
        "meta_eccentricity": 0.0404687,
        "meta_inclination": 74.02,
        "meta_ra_of_asc_node": 307.4172,
        "meta_arg_of_pericenter": 183.4058,
        "meta_mean_anomaly": 354.3417,
        "meta_ephemeris_type": 0,
        "meta_classification_type": "U",
        "meta_norad_cat_id": 35586,
        "meta_element_set_no": 999,
        "meta_rev_at_epoch": 60340,
        "meta_bstar": 0.00055296,
        "meta_mean_motion_dot": 5.88e-06,
        "meta_mean_motion_ddot": 0,
        "tle_line1": "1 35586U 93036AMD 25343.65537095  .00000588  00000+0  55296-3 0  9995",
        "tle_line2": "2 35586  74.0200 307.4172 0404687 183.4058 354.3417 13.52082947603405"
      },
      "geometry": {
        "type": "Point",
        "coordinates": [
          -165.14596177627678,
          -73.06112819528231
        ]
      }
    },
    {
      "type": "Feature",
      "properties": {
        "norad_id": 35587,
        "name": "COSMOS 2251 DEB",
        "group": "cosmos-2251-debris",
        "lat": -71.99682270734645,
        "lon": -56.95105094788294,
        "alt_km": 592.6656154967841,
        "timestamp": "2025-12-11T08:58:27.521692+00:00",
        "meta_object_name": "COSMOS 2251 DEB",
        "meta_object_id": "1993-036AME",
        "meta_epoch": "2025-12-09T21:31:13.107072",
        "meta_mean_motion": 14.71502807,
        "meta_eccentricity": 0.01026846,
        "meta_inclination": 74.0052,
        "meta_ra_of_asc_node": 63.9631,
        "meta_arg_of_pericenter": 252.2421,
        "meta_mean_anomaly": 106.7524,
        "meta_ephemeris_type": 0,
        "meta_classification_type": "U",
        "meta_norad_cat_id": 35587,
        "meta_element_set_no": 999,
        "meta_rev_at_epoch": 66304,
        "meta_bstar": 0.00042332871,
        "meta_mean_motion_dot": 2.817e-05,
        "meta_mean_motion_ddot": 0,
        "tle_line1": "1 35587U 93036AME 25343.89667948  .00002817  00000+0  42333-3 0  9998",
        "tle_line2": "2 35587  74.0052  63.9631 0102684 252.2421 106.7524 14.71502807663044"
      },
      "geometry": {
        "type": "Point",
        "coordinates": [
          -56.95105094788294,
          -71.99682270734645
        ]
      }
    },
    {
      "type": "Feature",
      "properties": {
        "norad_id": 35593,
        "name": "COSMOS 2251 DEB",
        "group": "cosmos-2251-debris",
        "lat": -70.13862053430253,
        "lon": 163.0752285147909,
        "alt_km": 755.0305143665255,
        "timestamp": "2025-12-11T08:58:27.521702+00:00",
        "meta_object_name": "COSMOS 2251 DEB",
        "meta_object_id": "1993-036AML",
        "meta_epoch": "2025-12-11T02:42:25.142400",
        "meta_mean_motion": 14.25584925,
        "meta_eccentricity": 0.0105198,
        "meta_inclination": 74.0861,
        "meta_ra_of_asc_node": 291.378,
        "meta_arg_of_pericenter": 298.2541,
        "meta_mean_anomaly": 60.8018,
        "meta_ephemeris_type": 0,
        "meta_classification_type": "U",
        "meta_norad_cat_id": 35593,
        "meta_element_set_no": 999,
        "meta_rev_at_epoch": 85042,
        "meta_bstar": 0.0017378,
        "meta_mean_motion_dot": 4.336e-05,
        "meta_mean_motion_ddot": 0,
        "tle_line1": "1 35593U 93036AML 25345.11279100  .00004336  00000+0  17378-2 0  9999",
        "tle_line2": "2 35593  74.0861 291.3780 0105198 298.2541  60.8018 14.25584925850425"
      },
      "geometry": {
        "type": "Point",
        "coordinates": [
          163.0752285147909,
          -70.13862053430253
        ]
      }
    }
  ]
}